[{"OBJECT_NAME":"SL-8 R/B","OBJECT_ID":"1991-006B","EPOCH":"2026-04-16T20:31:20.068896","MEAN_MOTION":13.77501666,"ECCENTRICITY":0.00209814,"INCLINATION":82.9412,"RA_OF_ASC_NODE":141.6657,"ARG_OF_PERICENTER":289.4543,"MEAN_ANOMALY":250.5477,"EPHEMERIS_TYPE":0,"CLASSIFICATION_TYPE":"U","NORAD_CAT_ID":21088,"ELEMENT_SET_NO":999,"REV_AT_EPOCH":76932,"BSTAR":0.00013215857,"MEAN_MOTION_DOT":1.47e-6,"MEAN_MOTION_DDOT":0},{"OBJECT_NAME":"OKEAN-3","OBJECT_ID":"1991-039A","EPOCH":"2026-04-16T13:53:11.148864","MEAN_MOTION":15.05017078,"ECCENTRICITY":0.00139006,"INCLINATION":82.5137,"RA_OF_ASC_NODE":300.1219,"ARG_OF_PERICENTER":195.4439,"MEAN_ANOMALY":164.6366,"EPHEMERIS_TYPE":0,"CLASSIFICATION_TYPE":"U","NORAD_CAT_ID":21397,"ELEMENT_SET_NO":999,"REV_AT_EPOCH":87073,"BSTAR":8.1184969e-5,"MEAN_MOTION_DOT":1.183e-5,"MEAN_MOTION_DDOT":0},{"OBJECT_NAME":"COSMOS 2151","OBJECT_ID":"1991-042A","EPOCH":"2026-04-16T21:39:26.925408","MEAN_MOTION":15.00269573,"ECCENTRICITY":0.00107524,"INCLINATION":82.4979,"RA_OF_ASC_NODE":46.8077,"ARG_OF_PERICENTER":294.4278,"MEAN_ANOMALY":65.5824,"EPHEMERIS_TYPE":0,"CLASSIFICATION_TYPE":"U","NORAD_CAT_ID":21422,"ELEMENT_SET_NO":999,"REV_AT_EPOCH":86892,"BSTAR":9.879251e-5,"MEAN_MOTION_DOT":1.265e-5,"MEAN_MOTION_DDOT":0},{"OBJECT_NAME":"SL-14 R/B","OBJECT_ID":"1991-042B","EPOCH":"2026-04-16T15:20:31.003008","MEAN_MOTION":14.81865621,"ECCENTRICITY":0.00184739,"INCLINATION":82.4956,"RA_OF_ASC_NODE":184.6078,"ARG_OF_PERICENTER":114.6554,"MEAN_ANOMALY":245.6587,"EPHEMERIS_TYPE":0,"CLASSIFICATION_TYPE":"U","NORAD_CAT_ID":21423,"ELEMENT_SET_NO":999,"REV_AT_EPOCH":85869,"BSTAR":2.6443361e-5,"MEAN_MOTION_DOT":2.33e-6,"MEAN_MOTION_DDOT":0},{"OBJECT_NAME":"ERS-1","OBJECT_ID":"1991-050A","EPOCH":"2026-04-16T18:56:05.617824","MEAN_MOTION":14.39478,"ECCENTRICITY":0.00331455,"INCLINATION":98.7846,"RA_OF_ASC_NODE":125.9766,"ARG_OF_PERICENTER":89.4871,"MEAN_ANOMALY":271.0114,"EPHEMERIS_TYPE":0,"CLASSIFICATION_TYPE":"U","NORAD_CAT_ID":21574,"ELEMENT_SET_NO":999,"REV_AT_EPOCH":82121,"BSTAR":6.7789682e-5,"MEAN_MOTION_DOT":1.66e-6,"MEAN_MOTION_DDOT":0},{"OBJECT_NAME":"ARIANE 40 R/B","OBJECT_ID":"1991-050F","EPOCH":"2026-04-16T21:18:43.255296","MEAN_MOTION":14.4292069,"ECCENTRICITY":0.00022891,"INCLINATION":98.1938,"RA_OF_ASC_NODE":157.6761,"ARG_OF_PERICENTER":341.5614,"MEAN_ANOMALY":18.5493,"EPHEMERIS_TYPE":0,"CLASSIFICATION_TYPE":"U","NORAD_CAT_ID":21610,"ELEMENT_SET_NO":999,"REV_AT_EPOCH":82450,"BSTAR":5.8433163e-5,"MEAN_MOTION_DOT":1.54e-6,"MEAN_MOTION_DDOT":0},{"OBJECT_NAME":"INTERCOSMOS 25","OBJECT_ID":"1991-086A","EPOCH":"2026-04-16T13:03:34.497792","MEAN_MOTION":12.12116763,"ECCENTRICITY":0.1485888,"INCLINATION":82.5991,"RA_OF_ASC_NODE":287.1151,"ARG_OF_PERICENTER":35.3579,"MEAN_ANOMALY":333.7429,"EPHEMERIS_TYPE":0,"CLASSIFICATION_TYPE":"U","NORAD_CAT_ID":21819,"ELEMENT_SET_NO":999,"REV_AT_EPOCH":50127,"BSTAR":0.00015908819,"MEAN_MOTION_DOT":8.37e-6,"MEAN_MOTION_DDOT":0},{"OBJECT_NAME":"SL-8 R/B","OBJECT_ID":"1992-008B","EPOCH":"2026-04-16T16:04:45.012288","MEAN_MOTION":13.75970147,"ECCENTRICITY":0.00351973,"INCLINATION":82.9264,"RA_OF_ASC_NODE":239.5217,"ARG_OF_PERICENTER":30.6728,"MEAN_ANOMALY":340.3263,"EPHEMERIS_TYPE":0,"CLASSIFICATION_TYPE":"U","NORAD_CAT_ID":21876,"ELEMENT_SET_NO":999,"REV_AT_EPOCH":71464,"BSTAR":-1.0373144e-5,"MEAN_MOTION_DOT":5.0e-8,"MEAN_MOTION_DDOT":0},{"OBJECT_NAME":"SL-8 R/B","OBJECT_ID":"1992-020B","EPOCH":"2026-04-16T19:55:29.204832","MEAN_MOTION":13.75549571,"ECCENTRICITY":0.00288037,"INCLINATION":82.9275,"RA_OF_ASC_NODE":125.4363,"ARG_OF_PERICENTER":188.5272,"MEAN_ANOMALY":344.6533,"EPHEMERIS_TYPE":0,"CLASSIFICATION_TYPE":"U","NORAD_CAT_ID":21938,"ELEMENT_SET_NO":999,"REV_AT_EPOCH":70637,"BSTAR":-5.5927334e-5,"MEAN_MOTION_DOT":-3.9e-7,"MEAN_MOTION_DDOT":0},{"OBJECT_NAME":"USA 81","OBJECT_ID":"1992-023A","EPOCH":"2026-04-16T22:34:33.552768","MEAN_MOTION":14.32380201,"ECCENTRICITY":0.00012248,"INCLINATION":85.0035,"RA_OF_ASC_NODE":109.3606,"ARG_OF_PERICENTER":87.433,"MEAN_ANOMALY":272.7003,"EPHEMERIS_TYPE":0,"CLASSIFICATION_TYPE":"U","NORAD_CAT_ID":21949,"ELEMENT_SET_NO":999,"REV_AT_EPOCH":10026,"BSTAR":3.549009e-5,"MEAN_MOTION_DOT":1.16e-6,"MEAN_MOTION_DDOT":0},{"OBJECT_NAME":"COSMOS 2219","OBJECT_ID":"1992-076A","EPOCH":"2026-04-16T18:58:04.078272","MEAN_MOTION":14.14089628,"ECCENTRICITY":0.00172719,"INCLINATION":71.0585,"RA_OF_ASC_NODE":298.422,"ARG_OF_PERICENTER":147.3712,"MEAN_ANOMALY":212.8482,"EPHEMERIS_TYPE":0,"CLASSIFICATION_TYPE":"U","NORAD_CAT_ID":22219,"ELEMENT_SET_NO":999,"REV_AT_EPOCH":72376,"BSTAR":0.00011868116,"MEAN_MOTION_DOT":1.79e-6,"MEAN_MOTION_DDOT":0},{"OBJECT_NAME":"SL-16 R/B","OBJECT_ID":"1992-076B","EPOCH":"2026-04-16T18:31:09.593184","MEAN_MOTION":14.16866797,"ECCENTRICITY":0.00115861,"INCLINATION":70.9979,"RA_OF_ASC_NODE":108.1556,"ARG_OF_PERICENTER":27.6197,"MEAN_ANOMALY":145.1443,"EPHEMERIS_TYPE":0,"CLASSIFICATION_TYPE":"U","NORAD_CAT_ID":22220,"ELEMENT_SET_NO":999,"REV_AT_EPOCH":72722,"BSTAR":6.6445406e-5,"MEAN_MOTION_DOT":8.5e-7,"MEAN_MOTION_DDOT":0},{"OBJECT_NAME":"COSMOS 2221","OBJECT_ID":"1992-080A","EPOCH":"2026-04-16T19:44:19.042368","MEAN_MOTION":14.96363349,"ECCENTRICITY":0.00155031,"INCLINATION":82.5031,"RA_OF_ASC_NODE":242.5434,"ARG_OF_PERICENTER":67.3291,"MEAN_ANOMALY":292.9568,"EPHEMERIS_TYPE":0,"CLASSIFICATION_TYPE":"U","NORAD_CAT_ID":22236,"ELEMENT_SET_NO":999,"REV_AT_EPOCH":78649,"BSTAR":0.00010129909,"MEAN_MOTION_DOT":1.175e-5,"MEAN_MOTION_DDOT":0},{"OBJECT_NAME":"SL-16 R/B","OBJECT_ID":"1992-093B","EPOCH":"2026-04-16T18:14:17.912256","MEAN_MOTION":14.15453446,"ECCENTRICITY":0.00063876,"INCLINATION":71.0199,"RA_OF_ASC_NODE":284.3456,"ARG_OF_PERICENTER":255.0414,"MEAN_ANOMALY":105.0003,"EPHEMERIS_TYPE":0,"CLASSIFICATION_TYPE":"U","NORAD_CAT_ID":22285,"ELEMENT_SET_NO":999,"REV_AT_EPOCH":71854,"BSTAR":-1.500455e-6,"MEAN_MOTION_DOT":-5.1e-7,"MEAN_MOTION_DDOT":0},{"OBJECT_NAME":"COSMOS 2228","OBJECT_ID":"1992-094A","EPOCH":"2026-04-16T21:07:10.747200","MEAN_MOTION":14.97383882,"ECCENTRICITY":0.00183306,"INCLINATION":82.5204,"RA_OF_ASC_NODE":200.7485,"ARG_OF_PERICENTER":169.0461,"MEAN_ANOMALY":191.1165,"EPHEMERIS_TYPE":0,"CLASSIFICATION_TYPE":"U","NORAD_CAT_ID":22286,"ELEMENT_SET_NO":999,"REV_AT_EPOCH":78177,"BSTAR":0.00010684357,"MEAN_MOTION_DOT":1.272e-5,"MEAN_MOTION_DDOT":0},{"OBJECT_NAME":"SL-16 R/B","OBJECT_ID":"1993-016B","EPOCH":"2026-04-16T19:18:01.163232","MEAN_MOTION":14.15313922,"ECCENTRICITY":0.00127431,"INCLINATION":71.0062,"RA_OF_ASC_NODE":135.1332,"ARG_OF_PERICENTER":266.4449,"MEAN_ANOMALY":93.5216,"EPHEMERIS_TYPE":0,"CLASSIFICATION_TYPE":"U","NORAD_CAT_ID":22566,"ELEMENT_SET_NO":999,"REV_AT_EPOCH":70756,"BSTAR":-1.4463093e-5,"MEAN_MOTION_DOT":-7.6e-7,"MEAN_MOTION_DDOT":0},{"OBJECT_NAME":"COSMOS 2242","OBJECT_ID":"1993-024A","EPOCH":"2026-04-16T17:53:04.987104","MEAN_MOTION":14.9671704,"ECCENTRICITY":0.00165427,"INCLINATION":82.5192,"RA_OF_ASC_NODE":230.3088,"ARG_OF_PERICENTER":172.583,"MEAN_ANOMALY":187.564,"EPHEMERIS_TYPE":0,"CLASSIFICATION_TYPE":"U","NORAD_CAT_ID":22626,"ELEMENT_SET_NO":999,"REV_AT_EPOCH":78608,"BSTAR":0.00010712471,"MEAN_MOTION_DOT":1.253e-5,"MEAN_MOTION_DDOT":0}]
