SL-8 R/B                
1 21088U 91006B   26106.85509339  .00000147  00000+0  13216-3 0  9999
2 21088  82.9412 141.6657 0020981 289.4543 250.5477 13.77501666769321
OKEAN-3                 
1 21397U 91039A   26106.57860126  .00001183  00000+0  81185-4 0  9993
2 21397  82.5137 300.1219 0013900 195.4439 164.6366 15.05017078870735
COSMOS 2151             
1 21422U 91042A   26106.90239497  .00001265  00000+0  98793-4 0  9998
2 21422  82.4979  46.8077 0010752 294.4278  65.5824 15.00269573868926
SL-14 R/B               
1 21423U 91042B   26106.63924772  .00000233  00000+0  26443-4 0  9993
2 21423  82.4956 184.6078 0018473 114.6554 245.6587 14.81865621858696
ERS-1                   
1 21574U 91050A   26106.78895391  .00000166  00000+0  67790-4 0  9994
2 21574  98.7846 125.9766 0033145  89.4871 271.0114 14.39478000821218
ARIANE 40 R/B           
1 21610U 91050F   26106.88800064  .00000154  00000+0  58433-4 0  9990
2 21610  98.1938 157.6761 0002289 341.5614  18.5493 14.42920690824504
INTERCOSMOS 25          
1 21819U 91086A   26106.54414928  .00000837  00000+0  15909-3 0  9991
2 21819  82.5991 287.1151 1485888  35.3579 333.7429 12.12116763501272
SL-8 R/B                
1 21876U 92008B   26106.66996542  .00000005  00000+0 -10373-4 0  9998
2 21876  82.9264 239.5217 0035197  30.6728 340.3263 13.75970147714644
SL-8 R/B                
1 21938U 92020B   26106.83019913 -.00000039  00000+0 -55927-4 0  9990
2 21938  82.9275 125.4363 0028803 188.5272 344.6533 13.75549571706374
USA 81                  
1 21949U 92023A   26106.94066612  .00000116  00000+0  35490-4 0  9992
2 21949  85.0035 109.3606 0001224  87.4330 272.7003 14.32380201100261
COSMOS 2219             
1 22219U 92076A   26106.79032498  .00000179  00000+0  11868-3 0  9990
2 22219  71.0585 298.4220 0017271 147.3712 212.8482 14.14089628723769
SL-16 R/B               
1 22220U 92076B   26106.77163881  .00000085  00000+0  66445-4 0  9999
2 22220  70.9979 108.1556 0011586  27.6197 145.1443 14.16866797727227
COSMOS 2221             
1 22236U 92080A   26106.82244262  .00001175  00000+0  10130-3 0  9990
2 22236  82.5031 242.5434 0015503  67.3291 292.9568 14.96363349786495
SL-16 R/B               
1 22285U 92093B   26106.75992954 -.00000051  00000+0 -15005-5 0  9990
2 22285  71.0199 284.3456 0006387 255.0414 105.0003 14.15453446718546
COSMOS 2228             
1 22286U 92094A   26106.87998550  .00001272  00000+0  10684-3 0  9993
2 22286  82.5204 200.7485 0018330 169.0461 191.1165 14.97383882781778
SL-16 R/B               
1 22566U 93016B   26106.80418013 -.00000076  00000+0 -14463-4 0  9996
2 22566  71.0062 135.1332 0012743 266.4449  93.5216 14.15313922707561
COSMOS 2242             
1 22626U 93024A   26106.74519661  .00001253  00000+0  10712-3 0  9994
2 22626  82.5192 230.3088 0016542 172.5830 187.5640 14.96717040786084
